1 27424U 02022A   11260.58440415 +.00000482 +00000-0 +11709-3 0 00677
2 27424 098.2021 199.8942 0001366 086.3803 273.7532 14.57110637498521